[{"OBJECT_NAME":"FLOCK 4G-28","OBJECT_ID":"2025-009AB","EPOCH":"2026-03-09T04:28:42.447360","MEAN_MOTION":15.33074282,"ECCENTRICITY":9.115e-5,"INCLINATION":97.4053,"RA_OF_ASC_NODE":152.4797,"ARG_OF_PERICENTER":349.2155,"MEAN_ANOMALY":10.9068,"EPHEMERIS_TYPE":0,"CLASSIFICATION_TYPE":"U","NORAD_CAT_ID":62634,"ELEMENT_SET_NO":999,"REV_AT_EPOCH":6375,"BSTAR":0.00037255428,"MEAN_MOTION_DOT":0.0001183,"MEAN_MOTION_DDOT":0},{"OBJECT_NAME":"STARLINK-36154","OBJECT_ID":"2025-286Q","EPOCH":"2026-03-09T01:55:57.837792","MEAN_MOTION":15.30172711,"ECCENTRICITY":0.00012955,"INCLINATION":53.1618,"RA_OF_ASC_NODE":1.2703,"ARG_OF_PERICENTER":54.3015,"MEAN_ANOMALY":305.8106,"EPHEMERIS_TYPE":0,"CLASSIFICATION_TYPE":"U","NORAD_CAT_ID":66939,"ELEMENT_SET_NO":999,"REV_AT_EPOCH":1532,"BSTAR":0.0016559149,"MEAN_MOTION_DOT":0.00048966,"MEAN_MOTION_DDOT":0}]
