FLOCK 4G-28             
1 62634U 25009AB  26068.18660240  .00011830  00000+0  37255-3 0  9993
2 62634  97.4053 152.4797 0000911 349.2155  10.9068 15.33074282 63756
STARLINK-36154          
1 66939U 25286Q   26068.08053053  .00048966  00000+0  16559-2 0  9992
2 66939  53.1618   1.2703 0001295  54.3015 305.8106 15.30172711 15329
